{
  "type": "FeatureCollection",
  "features": [
    {
      "type": "Feature",
      "properties": {
        "norad_id": 22490,
        "name": "SCD 1",
        "group": "resource",
        "lat": 23.79727721373107,
        "lon": -18.466656015629034,
        "alt_km": 719.745582465106,
        "timestamp": "2025-12-20T03:42:47.048450+00:00",
        "meta_object_name": "SCD 1",
        "meta_object_id": "1993-009B",
        "meta_epoch": "2025-12-18T10:33:14.558976",
        "meta_mean_motion": 14.46002995,
        "meta_eccentricity": 0.00420424,
        "meta_inclination": 24.9686,
        "meta_ra_of_asc_node": 243.5007,
        "meta_arg_of_pericenter": 25.3935,
        "meta_mean_anomaly": 135.5853,
        "meta_ephemeris_type": 0,
        "meta_classification_type": "U",
        "meta_norad_cat_id": 22490,
        "meta_element_set_no": 999,
        "meta_rev_at_epoch": 73492,
        "meta_bstar": 7.3091886e-05,
        "meta_mean_motion_dot": 4.52e-06,
        "meta_mean_motion_ddot": 0,
        "tle_line1": "1 22490U 93009B   25352.43975184  .00000452  00000+0  73092-4 0  9991",
        "tle_line2": "2 22490  24.9686 243.5007 0042042  25.3935 135.5853 14.46002995734929"
      },
      "geometry": {
        "type": "Point",
        "coordinates": [
          -18.466656015629034,
          23.79727721373107
        ]
      }
    },
    {
      "type": "Feature",
      "properties": {
        "norad_id": 25397,
        "name": "TECHSAT 1B (GO-32)",
        "group": "resource",
        "lat": 9.722029884353747,
        "lon": -24.016631713479715,
        "alt_km": 811.036227425694,
        "timestamp": "2025-12-20T03:42:47.048477+00:00",
        "meta_object_name": "TECHSAT 1B (GO-32)",
        "meta_object_id": "1998-043D",
        "meta_epoch": "2025-12-19T05:45:01.522080",
        "meta_mean_motion": 14.24378852,
        "meta_eccentricity": 0.0001867,
        "meta_inclination": 98.9925,
        "meta_ra_of_asc_node": 336.6018,
        "meta_arg_of_pericenter": 47.1475,
        "meta_mean_anomaly": 312.9859,
        "meta_ephemeris_type": 0,
        "meta_classification_type": "U",
        "meta_norad_cat_id": 25397,
        "meta_element_set_no": 999,
        "meta_rev_at_epoch": 42571,
        "meta_bstar": 4.5722e-05,
        "meta_mean_motion_dot": 5.9e-07,
        "meta_mean_motion_ddot": 0,
        "tle_line1": "1 25397U 98043D   25353.23960095  .00000059  00000+0  45722-4 0  9999",
        "tle_line2": "2 25397  98.9925 336.6018 0001867  47.1475 312.9859 14.24378852425717"
      },
      "geometry": {
        "type": "Point",
        "coordinates": [
          -24.016631713479715,
          9.722029884353747
        ]
      }
    },
    {
      "type": "Feature",
      "properties": {
        "norad_id": 25504,
        "name": "SCD 2",
        "group": "resource",
        "lat": 20.661696304959246,
        "lon": -137.8652102617154,
        "alt_km": 735.8613919808467,
        "timestamp": "2025-12-20T03:42:47.048492+00:00",
        "meta_object_name": "SCD 2",
        "meta_object_id": "1998-060A",
        "meta_epoch": "2025-12-19T16:11:25.681920",
        "meta_mean_motion": 14.4542685,
        "meta_eccentricity": 0.0016943,
        "meta_inclination": 24.9945,
        "meta_ra_of_asc_node": 99.1342,
        "meta_arg_of_pericenter": 26.9849,
        "meta_mean_anomaly": 112.7893,
        "meta_ephemeris_type": 0,
        "meta_classification_type": "U",
        "meta_norad_cat_id": 25504,
        "meta_element_set_no": 999,
        "meta_rev_at_epoch": 43432,
        "meta_bstar": 4.7822e-05,
        "meta_mean_motion_dot": 3.53e-06,
        "meta_mean_motion_ddot": 0,
        "tle_line1": "1 25504U 98060A   25353.67460280  .00000353  00000+0  47822-4 0  9997",
        "tle_line2": "2 25504  24.9945  99.1342 0016943  26.9849 112.7893 14.45426850434326"
      },
      "geometry": {
        "type": "Point",
        "coordinates": [
          -137.8652102617154,
          20.661696304959246
        ]
      }
    },
    {
      "type": "Feature",
      "properties": {
        "norad_id": 25757,
        "name": "DLR-TUBSAT",
        "group": "resource",
        "lat": -72.02134022654394,
        "lon": 130.897525367316,
        "alt_km": 724.1840252223965,
        "timestamp": "2025-12-20T03:42:47.048505+00:00",
        "meta_object_name": "DLR-TUBSAT",
        "meta_object_id": "1999-029B",
        "meta_epoch": "2025-12-17T13:22:10.787520",
        "meta_mean_motion": 14.52359578,
        "meta_eccentricity": 0.00141996,
        "meta_inclination": 98.6566,
        "meta_ra_of_asc_node": 336.2196,
        "meta_arg_of_pericenter": 177.8976,
        "meta_mean_anomaly": 182.2281,
        "meta_ephemeris_type": 0,
        "meta_classification_type": "U",
        "meta_norad_cat_id": 25757,
        "meta_element_set_no": 999,
        "meta_rev_at_epoch": 40688,
        "meta_bstar": 3.7650132e-05,
        "meta_mean_motion_dot": 1.05e-06,
        "meta_mean_motion_ddot": 0,
        "tle_line1": "1 25757U 99029B   25351.55706930  .00000105  00000+0  37650-4 0  9996",
        "tle_line2": "2 25757  98.6566 336.2196 0014199 177.8976 182.2281 14.52359578406886"
      },
      "geometry": {
        "type": "Point",
        "coordinates": [
          130.897525367316,
          -72.02134022654394
        ]
      }
    },
    {
      "type": "Feature",
      "properties": {
        "norad_id": 25994,
        "name": "TERRA",
        "group": "resource",
        "lat": -4.7099920773100585,
        "lon": -135.09499167345678,
        "alt_km": 694.48487129568,
        "timestamp": "2025-12-20T03:42:47.048516+00:00",
        "meta_object_name": "TERRA",
        "meta_object_id": "1999-068A",
        "meta_epoch": "2025-12-19T17:28:53.309856",
        "meta_mean_motion": 14.60909243,
        "meta_eccentricity": 0.000355,
        "meta_inclination": 97.9739,
        "meta_ra_of_asc_node": 45.1561,
        "meta_arg_of_pericenter": 80.717,
        "meta_mean_anomaly": 23.1037,
        "meta_ephemeris_type": 0,
        "meta_classification_type": "U",
        "meta_norad_cat_id": 25994,
        "meta_element_set_no": 999,
        "meta_rev_at_epoch": 38340,
        "meta_bstar": 7.775e-05,
        "meta_mean_motion_dot": 3.36e-06,
        "meta_mean_motion_ddot": 0,
        "tle_line1": "1 25994U 99068A   25353.72839479  .00000336  00000+0  77750-4 0  9999",
        "tle_line2": "2 25994  97.9739  45.1561 0003550  80.7170  23.1037 14.60909243383405"
      },
      "geometry": {
        "type": "Point",
        "coordinates": [
          -135.09499167345678,
          -4.7099920773100585
        ]
      }
    },
    {
      "type": "Feature",
      "properties": {
        "norad_id": 27004,
        "name": "MAROC-TUBSAT",
        "group": "resource",
        "lat": -77.44350221216565,
        "lon": -146.43932456068578,
        "alt_km": 994.7005696715523,
        "timestamp": "2025-12-20T03:42:47.048528+00:00",
        "meta_object_name": "MAROC-TUBSAT",
        "meta_object_id": "2001-056D",
        "meta_epoch": "2025-12-19T10:43:52.540032",
        "meta_mean_motion": 13.70253235,
        "meta_eccentricity": 0.0019165,
        "meta_inclination": 99.7914,
        "meta_ra_of_asc_node": 162.0096,
        "meta_arg_of_pericenter": 242.2818,
        "meta_mean_anomaly": 146.9,
        "meta_ephemeris_type": 0,
        "meta_classification_type": "U",
        "meta_norad_cat_id": 27004,
        "meta_element_set_no": 999,
        "meta_rev_at_epoch": 20157,
        "meta_bstar": 2.2413e-05,
        "meta_mean_motion_dot": -2.7e-07,
        "meta_mean_motion_ddot": 0,
        "tle_line1": "1 27004U 01056D   25353.44713588 -.00000027  00000+0  22413-4 0  9998",
        "tle_line2": "2 27004  99.7914 162.0096 0019165 242.2818 146.9000 13.70253235201573"
      },
      "geometry": {
        "type": "Point",
        "coordinates": [
          -146.43932456068578,
          -77.44350221216565
        ]
      }
    },
    {
      "type": "Feature",
      "properties": {
        "norad_id": 27424,
        "name": "AQUA",
        "group": "resource",
        "lat": 79.81335172384603,
        "lon": -100.21143567130979,
        "alt_km": 679.0419185768606,
        "timestamp": "2025-12-20T03:42:47.048539+00:00",
        "meta_object_name": "AQUA",
        "meta_object_id": "2002-022A",
        "meta_epoch": "2025-12-19T19:17:33.406368",
        "meta_mean_motion": 14.61824191,
        "meta_eccentricity": 0.0001349,
        "meta_inclination": 98.4046,
        "meta_ra_of_asc_node": 314.798,
        "meta_arg_of_pericenter": 112.3467,
        "meta_mean_anomaly": 286.6091,
        "meta_ephemeris_type": 0,
        "meta_classification_type": "U",
        "meta_norad_cat_id": 27424,
        "meta_element_set_no": 999,
        "meta_rev_at_epoch": 25706,
        "meta_bstar": 0.0001551,
        "meta_mean_motion_dot": 7.25e-06,
        "meta_mean_motion_ddot": 0,
        "tle_line1": "1 27424U 02022A   25353.80385887  .00000725  00000+0  15510-3 0  9998",
        "tle_line2": "2 27424  98.4046 314.7980 0001349 112.3467 286.6091 14.61824191257064"
      },
      "geometry": {
        "type": "Point",
        "coordinates": [
          -100.21143567130979,
          79.81335172384603
        ]
      }
    }
  ]
}